ONEWEB-0520             
1 54138U 22138AB  25283.23767846  .00000015  00000+0  62186-5 0  9993
2 54138  87.9281 354.6716 0001748 109.3841 250.7481 13.19723795143851
ONEWEB-0521             
1 54139U 22138AC  25283.19505031 -.00000006  00000+0 -47439-4 0  9990
2 54139  87.9284 354.6661 0001832  91.9475 268.1867 13.19727340143791
ONEWEB-0522             
1 54140U 22138AD  25283.25033882  .00000071  00000+0  14448-3 0  9992
2 54140  87.9279 354.6558 0001745 104.3564 255.7762 13.19724560143846
ONEWEB-0523             
1 54141U 22138AE  25283.18458162  .00000018  00000+0  13364-4 0  9995
2 54141  87.9224 324.2992 0002592  82.0207 278.1220 13.20773124146303
ONEWEB-0524             
1 54142U 22138AF  25283.17354969 -.00000033  00000+0 -11351-3 0  9997
2 54142  87.9227 324.3032 0002848 102.0764 258.0688 13.20771273146306
ONEWEB-0525             
1 54143U 22138AG  25283.19346457  .00000071  00000+0  14493-3 0  9993
2 54143  87.9283 354.6892 0001749 109.3823 250.7499 13.19726469143855
ONEWEB-0526             
1 54144U 22138AH  25283.22662459 -.00000160  00000+0 -43308-3 0  9999
2 54144  87.9279 354.6689 0001835 103.0565 257.0772 13.19724751143839
ONEWEB-0529             
1 54145U 22138AJ  25283.22979228  .00000170  00000+0  39219-3 0  9990
2 54145  87.9264 354.7054 0001800 107.6131 252.5198 13.19727097143852
ONEWEB-0531             
1 54146U 22138AK  25283.15933680 -.00000009  00000+0 -53742-4 0  9996
2 54146  87.9224 324.2967 0002787  88.6910 271.4543 13.20770475146309
ONEWEB-0535             
1 54147U 22138AL  25283.26295854  .00000025  00000+0  28889-4 0  9993
2 54147  87.9278 354.6573 0002066  90.7047 269.4323 13.19723298143875
ONEWEB-0536             
1 54148U 22138AM  25283.14669965  .00000055  00000+0  10451-3 0  9997
2 54148  87.9224 324.3460 0002934  91.3527 268.7942 13.20773119146297
ONEWEB-0527             
1 54642U 22166A   25283.07036913 -.00000019  00000+0 -76902-4 0  9996
2 54642  87.9163 293.9089 0001887  92.6454 267.4896 13.21886691138493
ONEWEB-0528             
1 54643U 22166B   25283.00101623  .00000029  00000+0  37770-4 0  9990
2 54643  87.9170 293.9263 0001909  94.8973 265.2379 13.21860438138494
ONEWEB-0539             
1 54644U 22166C   25283.26464923 -.00002073  00000+0 -50598-2 0  9998
2 54644  87.9169 293.8399 0001836  89.1006 271.0338 13.21723548138529
ONEWEB-0540             
1 54645U 22166D   25283.27115346 -.00001980  00000+0 -48351-2 0  9992
2 54645  87.9172 293.8767 0001851  89.3291 270.8055 13.21712817138517
ONEWEB-0542             
1 54646U 22166E   25283.04706183 -.00004815  00000+0 -11717-1 0  9998
2 54646  87.9160 293.8816 0002165  89.2655 270.8727 13.21714744138496
