[{"OBJECT_NAME":"ONEWEB-0520","OBJECT_ID":"2022-138AB","EPOCH":"2025-10-10T05:42:15.418944","MEAN_MOTION":13.19723795,"ECCENTRICITY":0.00017489,"INCLINATION":87.9281,"RA_OF_ASC_NODE":354.6716,"ARG_OF_PERICENTER":109.3841,"MEAN_ANOMALY":250.7481,"EPHEMERIS_TYPE":0,"CLASSIFICATION_TYPE":"U","NORAD_CAT_ID":54138,"ELEMENT_SET_NO":999,"REV_AT_EPOCH":14385,"BSTAR":6.218596e-6,"MEAN_MOTION_DOT":1.5e-7,"MEAN_MOTION_DDOT":0},{"OBJECT_NAME":"ONEWEB-0521","OBJECT_ID":"2022-138AC","EPOCH":"2025-10-10T04:40:52.346784","MEAN_MOTION":13.1972734,"ECCENTRICITY":0.00018323,"INCLINATION":87.9284,"RA_OF_ASC_NODE":354.6661,"ARG_OF_PERICENTER":91.9475,"MEAN_ANOMALY":268.1867,"EPHEMERIS_TYPE":0,"CLASSIFICATION_TYPE":"U","NORAD_CAT_ID":54139,"ELEMENT_SET_NO":999,"REV_AT_EPOCH":14379,"BSTAR":-4.7439036e-5,"MEAN_MOTION_DOT":-6.0e-8,"MEAN_MOTION_DDOT":0},{"OBJECT_NAME":"ONEWEB-0522","OBJECT_ID":"2022-138AD","EPOCH":"2025-10-10T06:00:29.274048","MEAN_MOTION":13.1972456,"ECCENTRICITY":0.00017455,"INCLINATION":87.9279,"RA_OF_ASC_NODE":354.6558,"ARG_OF_PERICENTER":104.3564,"MEAN_ANOMALY":255.7762,"EPHEMERIS_TYPE":0,"CLASSIFICATION_TYPE":"U","NORAD_CAT_ID":54140,"ELEMENT_SET_NO":999,"REV_AT_EPOCH":14384,"BSTAR":0.00014448093,"MEAN_MOTION_DOT":7.1e-7,"MEAN_MOTION_DDOT":0},{"OBJECT_NAME":"ONEWEB-0523","OBJECT_ID":"2022-138AE","EPOCH":"2025-10-10T04:25:47.851968","MEAN_MOTION":13.20773124,"ECCENTRICITY":0.00025928,"INCLINATION":87.9224,"RA_OF_ASC_NODE":324.2992,"ARG_OF_PERICENTER":82.0207,"MEAN_ANOMALY":278.122,"EPHEMERIS_TYPE":0,"CLASSIFICATION_TYPE":"U","NORAD_CAT_ID":54141,"ELEMENT_SET_NO":999,"REV_AT_EPOCH":14630,"BSTAR":1.3363962e-5,"MEAN_MOTION_DOT":1.8e-7,"MEAN_MOTION_DDOT":0},{"OBJECT_NAME":"ONEWEB-0524","OBJECT_ID":"2022-138AF","EPOCH":"2025-10-10T04:09:54.693216","MEAN_MOTION":13.20771273,"ECCENTRICITY":0.00028483,"INCLINATION":87.9227,"RA_OF_ASC_NODE":324.3032,"ARG_OF_PERICENTER":102.0764,"MEAN_ANOMALY":258.0688,"EPHEMERIS_TYPE":0,"CLASSIFICATION_TYPE":"U","NORAD_CAT_ID":54142,"ELEMENT_SET_NO":999,"REV_AT_EPOCH":14630,"BSTAR":-0.00011350556,"MEAN_MOTION_DOT":-3.3e-7,"MEAN_MOTION_DDOT":0},{"OBJECT_NAME":"ONEWEB-0525","OBJECT_ID":"2022-138AG","EPOCH":"2025-10-10T04:38:35.338848","MEAN_MOTION":13.19726469,"ECCENTRICITY":0.00017499,"INCLINATION":87.9283,"RA_OF_ASC_NODE":354.6892,"ARG_OF_PERICENTER":109.3823,"MEAN_ANOMALY":250.7499,"EPHEMERIS_TYPE":0,"CLASSIFICATION_TYPE":"U","NORAD_CAT_ID":54143,"ELEMENT_SET_NO":999,"REV_AT_EPOCH":14385,"BSTAR":0.00014492606,"MEAN_MOTION_DOT":7.1e-7,"MEAN_MOTION_DDOT":0},{"OBJECT_NAME":"ONEWEB-0526","OBJECT_ID":"2022-138AH","EPOCH":"2025-10-10T05:26:20.364576","MEAN_MOTION":13.19724751,"ECCENTRICITY":0.0001835,"INCLINATION":87.9279,"RA_OF_ASC_NODE":354.6689,"ARG_OF_PERICENTER":103.0565,"MEAN_ANOMALY":257.0772,"EPHEMERIS_TYPE":0,"CLASSIFICATION_TYPE":"U","NORAD_CAT_ID":54144,"ELEMENT_SET_NO":999,"REV_AT_EPOCH":14383,"BSTAR":-0.0004330762,"MEAN_MOTION_DOT":-1.6e-6,"MEAN_MOTION_DDOT":0},{"OBJECT_NAME":"ONEWEB-0529","OBJECT_ID":"2022-138AJ","EPOCH":"2025-10-10T05:30:54.052992","MEAN_MOTION":13.19727097,"ECCENTRICITY":0.00018008,"INCLINATION":87.9264,"RA_OF_ASC_NODE":354.7054,"ARG_OF_PERICENTER":107.6131,"MEAN_ANOMALY":252.5198,"EPHEMERIS_TYPE":0,"CLASSIFICATION_TYPE":"U","NORAD_CAT_ID":54145,"ELEMENT_SET_NO":999,"REV_AT_EPOCH":14385,"BSTAR":0.00039219138,"MEAN_MOTION_DOT":1.7e-6,"MEAN_MOTION_DDOT":0},{"OBJECT_NAME":"ONEWEB-0531","OBJECT_ID":"2022-138AK","EPOCH":"2025-10-10T03:49:26.699520","MEAN_MOTION":13.20770475,"ECCENTRICITY":0.00027873,"INCLINATION":87.9224,"RA_OF_ASC_NODE":324.2967,"ARG_OF_PERICENTER":88.691,"MEAN_ANOMALY":271.4543,"EPHEMERIS_TYPE":0,"CLASSIFICATION_TYPE":"U","NORAD_CAT_ID":54146,"ELEMENT_SET_NO":999,"REV_AT_EPOCH":14630,"BSTAR":-5.3742296e-5,"MEAN_MOTION_DOT":-9.0e-8,"MEAN_MOTION_DDOT":0},{"OBJECT_NAME":"ONEWEB-0535","OBJECT_ID":"2022-138AL","EPOCH":"2025-10-10T06:18:39.617856","MEAN_MOTION":13.19723298,"ECCENTRICITY":0.00020665,"INCLINATION":87.9278,"RA_OF_ASC_NODE":354.6573,"ARG_OF_PERICENTER":90.7047,"MEAN_ANOMALY":269.4323,"EPHEMERIS_TYPE":0,"CLASSIFICATION_TYPE":"U","NORAD_CAT_ID":54147,"ELEMENT_SET_NO":999,"REV_AT_EPOCH":14387,"BSTAR":2.8889199e-5,"MEAN_MOTION_DOT":2.5e-7,"MEAN_MOTION_DDOT":0},{"OBJECT_NAME":"ONEWEB-0536","OBJECT_ID":"2022-138AM","EPOCH":"2025-10-10T03:31:14.849760","MEAN_MOTION":13.20773119,"ECCENTRICITY":0.00029346,"INCLINATION":87.9224,"RA_OF_ASC_NODE":324.346,"ARG_OF_PERICENTER":91.3527,"MEAN_ANOMALY":268.7942,"EPHEMERIS_TYPE":0,"CLASSIFICATION_TYPE":"U","NORAD_CAT_ID":54148,"ELEMENT_SET_NO":999,"REV_AT_EPOCH":14629,"BSTAR":0.00010450619,"MEAN_MOTION_DOT":5.5e-7,"MEAN_MOTION_DDOT":0},{"OBJECT_NAME":"ONEWEB-0527","OBJECT_ID":"2022-166A","EPOCH":"2025-10-10T01:41:19.892832","MEAN_MOTION":13.21886691,"ECCENTRICITY":0.00018872,"INCLINATION":87.9163,"RA_OF_ASC_NODE":293.9089,"ARG_OF_PERICENTER":92.6454,"MEAN_ANOMALY":267.4896,"EPHEMERIS_TYPE":0,"CLASSIFICATION_TYPE":"U","NORAD_CAT_ID":54642,"ELEMENT_SET_NO":999,"REV_AT_EPOCH":13849,"BSTAR":-7.6901923e-5,"MEAN_MOTION_DOT":-1.9e-7,"MEAN_MOTION_DDOT":0},{"OBJECT_NAME":"ONEWEB-0528","OBJECT_ID":"2022-166B","EPOCH":"2025-10-10T00:01:27.802272","MEAN_MOTION":13.21860438,"ECCENTRICITY":0.00019099,"INCLINATION":87.917,"RA_OF_ASC_NODE":293.9263,"ARG_OF_PERICENTER":94.8973,"MEAN_ANOMALY":265.2379,"EPHEMERIS_TYPE":0,"CLASSIFICATION_TYPE":"U","NORAD_CAT_ID":54643,"ELEMENT_SET_NO":999,"REV_AT_EPOCH":13849,"BSTAR":3.77698e-5,"MEAN_MOTION_DOT":2.9e-7,"MEAN_MOTION_DDOT":0},{"OBJECT_NAME":"ONEWEB-0539","OBJECT_ID":"2022-166C","EPOCH":"2025-10-10T06:21:05.693472","MEAN_MOTION":13.21723548,"ECCENTRICITY":0.00018367,"INCLINATION":87.9169,"RA_OF_ASC_NODE":293.8399,"ARG_OF_PERICENTER":89.1006,"MEAN_ANOMALY":271.0338,"EPHEMERIS_TYPE":0,"CLASSIFICATION_TYPE":"U","NORAD_CAT_ID":54644,"ELEMENT_SET_NO":999,"REV_AT_EPOCH":13852,"BSTAR":-0.0050597634,"MEAN_MOTION_DOT":-2.073e-5,"MEAN_MOTION_DDOT":0},{"OBJECT_NAME":"ONEWEB-0540","OBJECT_ID":"2022-166D","EPOCH":"2025-10-10T06:30:27.658944","MEAN_MOTION":13.21712817,"ECCENTRICITY":0.00018512,"INCLINATION":87.9172,"RA_OF_ASC_NODE":293.8767,"ARG_OF_PERICENTER":89.3291,"MEAN_ANOMALY":270.8055,"EPHEMERIS_TYPE":0,"CLASSIFICATION_TYPE":"U","NORAD_CAT_ID":54645,"ELEMENT_SET_NO":999,"REV_AT_EPOCH":13851,"BSTAR":-0.0048350735,"MEAN_MOTION_DOT":-1.98e-5,"MEAN_MOTION_DDOT":0},{"OBJECT_NAME":"ONEWEB-0542","OBJECT_ID":"2022-166E","EPOCH":"2025-10-10T01:07:46.142112","MEAN_MOTION":13.21714744,"ECCENTRICITY":0.00021651,"INCLINATION":87.916,"RA_OF_ASC_NODE":293.8816,"ARG_OF_PERICENTER":89.2655,"MEAN_ANOMALY":270.8727,"EPHEMERIS_TYPE":0,"CLASSIFICATION_TYPE":"U","NORAD_CAT_ID":54646,"ELEMENT_SET_NO":999,"REV_AT_EPOCH":13849,"BSTAR":-0.011716791,"MEAN_MOTION_DOT":-4.815e-5,"MEAN_MOTION_DDOT":0}]
